KUIPER-00133            
1 65764U 25217C   25327.83335647 -.00020782  00000+0 -19846-2 0  9993
2 65764  51.8913 161.5767 0011178 325.4620 243.5752 14.92469679  5796
KUIPER-00139            
1 65765U 25217D   25327.83335647 -.01057405  00000+0 -64816-1 0  9993
2 65765  51.8749 158.6975 0007147 305.9933 210.7754 15.12399414  5579
KUIPER-00142            
1 65766U 25217E   25327.74661552  .00031705  00000+0  84744-3 0  9997
2 65766  51.8659 156.1919 0002447 271.4539  88.6168 15.37792963  9127
KUIPER-00145            
1 65767U 25217F   25327.83335647 -.00067759  00000+0 -19912-2 0  9995
2 65767  51.8693 155.9487 0004466 285.7134 105.2208 15.34687472  5273
KUIPER-00147            
1 65768U 25217G   25327.83335647 -.01610415  00000+0 -63100-1 0  9997
2 65768  51.8669 156.5249 0008480 311.3937 135.0513 15.28349115  5684
KUIPER-00148            
1 65769U 25217H   25327.83335647 -.00662743  00000+0 -24723-1 0  9996
2 65769  51.8622 156.7488 0008552 328.0944  22.4926 15.29282053  5533
KUIPER-00150            
1 65770U 25217J   25327.83335647 -.00494381  00000+0 -39702-1 0  9992
2 65770  51.9032 159.9460 0008228 317.6522 207.6566 15.01816879  5897
KUIPER-00151            
1 65771U 25217K   25327.83335647 -.00475910  00000+0 -21353-1 0  9993
2 65771  51.8745 156.7955 0003946 267.6328  92.6953 15.22863034  5623
